{
    "links": {
        "self": "http://www.neowsapp.com/rest/v1/neo/3371142?api_key=iIulBulltgU6a56xZRHN4H3l9WmuAYTsLGpBGhQ2"
    },
    "id": "3371142",
    "neo_reference_id": "3371142",
    "name": "(2007 EN88)",
    "designation": "2007 EN88",
    "nasa_jpl_url": "http://ssd.jpl.nasa.gov/sbdb.cgi?sstr=3371142",
    "absolute_magnitude_h": 26.6,
    "estimated_diameter": {
        "kilometers": {
            "estimated_diameter_min": 0.0127219879,
            "estimated_diameter_max": 0.0284472297
        },
        "meters": {
            "estimated_diameter_min": 12.7219878539,
            "estimated_diameter_max": 28.4472296503
        },
        "miles": {
            "estimated_diameter_min": 0.0079050743,
            "estimated_diameter_max": 0.0176762835
        },
        "feet": {
            "estimated_diameter_min": 41.7388066307,
            "estimated_diameter_max": 93.330808926
        }
    },
    "is_potentially_hazardous_asteroid": false,
    "close_approach_data": [
        {
            "close_approach_date": "2007-03-13",
            "close_approach_date_full": "2007-Mar-13 04:35",
            "epoch_date_close_approach": 1173760500000,
            "relative_velocity": {
                "kilometers_per_second": "12.2300174635",
                "kilometers_per_hour": "44028.0628686882",
                "miles_per_hour": "27357.326064158"
            },
            "miss_distance": {
                "astronomical": "0.0060181137",
                "lunar": "2.3410462293",
                "kilometers": "900296.990937819",
                "miles": "559418.6095831422"
            },
            "orbiting_body": "Earth"
        },
        {
            "close_approach_date": "2007-03-13",
            "close_approach_date_full": "2007-Mar-13 06:16",
            "epoch_date_close_approach": 1173766560000,
            "relative_velocity": {
                "kilometers_per_second": "13.1389594429",
                "kilometers_per_hour": "47300.253994534",
                "miles_per_hour": "29390.5383778814"
            },
            "miss_distance": {
                "astronomical": "0.0069042304",
                "lunar": "2.6857456256",
                "kilometers": "1032858.161829248",
                "miles": "641788.3016417024"
            },
            "orbiting_body": "Moon"
        }
    ],
    "orbital_data": {
        "orbit_id": "6",
        "orbit_determination_date": "2017-04-06 09:06:44",
        "first_observation_date": "2007-03-15",
        "last_observation_date": "2007-03-16",
        "data_arc_in_days": 1,
        "observations_used": 29,
        "orbit_uncertainty": "8",
        "minimum_orbit_intersection": ".00602593",
        "jupiter_tisserand_invariant": "3.421",
        "epoch_osculation": "2454175.5",
        "eccentricity": ".5882339417028635",
        "semi_major_axis": "2.180442442045638",
        "inclination": "8.905334350185223",
        "ascending_node_longitude": "354.0571334341557",
        "orbital_period": "1176.021786183767",
        "perihelion_distance": ".897832189704915",
        "perihelion_argument": "135.098306748584",
        "aphelion_distance": "3.463052694386361",
        "perihelion_time": "2454141.094421164690",
        "mean_anomaly": "10.53212493699172",
        "mean_motion": ".3061167779622628",
        "equinox": "J2000",
        "orbit_class": {
            "orbit_class_type": "APO",
            "orbit_class_description": "Near-Earth asteroid orbits which cross the Earth’s orbit similar to that of 1862 Apollo",
            "orbit_class_range": "a (semi-major axis) > 1.0 AU; q (perihelion) < 1.017 AU"
        }
    },
    "is_sentry_object": false
}